OBJECT_NAME,OBJECT_ID,EPOCH,MEAN_MOTION,ECCENTRICITY,INCLINATION,RA_OF_ASC_NODE,ARG_OF_PERICENTER,MEAN_ANOMALY,EPHEMERIS_TYPE,CLASSIFICATION_TYPE,NORAD_CAT_ID,ELEMENT_SET_NO,REV_AT_EPOCH,BSTAR,MEAN_MOTION_DOT,MEAN_MOTION_DDOT
ONEWEB-0309,2021-075W,2026-07-11T11:08:56.025312,13.17649798,.0002254,87.9137,1.0337,91.8175,268.3215,0,U,49095,999,23677,.12561068E-3,.62E-6,0
ONEWEB-0310,2021-075X,2026-07-11T11:29:48.585120,13.12444072,.00013718,87.8937,345.8466,87.0782,273.0504,0,U,49096,999,23837,.62728713E-3,.238E-5,0
ONEWEB-0311,2021-075Y,2026-07-11T11:18:39.074976,13.17648803,.00018846,87.9148,1.0324,76.0996,284.0345,0,U,49097,999,23682,.22867591E-3,.102E-5,0
ONEWEB-0312,2021-075Z,2026-07-11T11:40:31.868544,13.17648521,.0002088,87.9137,1.0386,85.2488,274.8882,0,U,49098,999,23680,.70986172E-4,.4E-6,0
ONEWEB-0313,2021-075AA,2026-07-11T11:47:36.889152,13.17649594,.00017438,87.9128,1.0412,85.8168,274.3162,0,U,49099,999,23679,.5272566E-4,.33E-6,0
ONEWEB-0314,2021-075AB,2026-07-09T17:04:12.657504,13.17650406,.00021382,87.9145,1.3722,83.5218,276.6157,0,U,49100,999,23653,-.33837312E-4,0,0
ONEWEB-0315,2021-075AC,2026-07-11T09:00:59.139936,13.12442078,.00016217,87.8974,345.8356,83.6621,276.4692,0,U,49101,999,23834,-.9981678E-3,-.346E-5,0
ONEWEB-0316,2021-075AD,2026-07-11T17:49:49.480320,13.18667072,.00019444,87.9211,330.5727,103.3999,256.7350,0,U,49102,999,24044,.45274885E-2,.1798E-4,0
ONEWEB-0317,2021-075AE,2026-07-10T09:18:42.396480,13.12443173,.00023379,87.8957,346.0558,110.1512,249.9869,0,U,49103,999,23823,-.83124841E-3,-.286E-5,0
ONEWEB-0318,2021-075AF,2026-07-11T08:38:27.951936,13.18686466,.00018076,87.9187,330.6508,94.1893,265.9446,0,U,49104,999,24035,.63867884E-4,.38E-6,0
ONEWEB-0319,2021-075AG,2026-07-11T11:21:04.671072,13.17648086,.00016244,87.9138,1.0356,77.2926,282.8387,0,U,49105,999,23680,.10834386E-3,.55E-6,0
ONEWEB-0323,2021-075AH,2026-07-11T08:39:02.251008,13.12441457,.00017953,87.8967,345.8435,77.9077,282.2253,0,U,49106,999,23772,-.1299734E-3,-.34E-6,0
ONEWEB-0329,2021-075AJ,2026-07-11T11:33:13.470624,13.17650976,.00020045,87.9144,1.0356,88.0560,272.0801,0,U,49107,999,23678,.36926544E-3,.156E-5,0
ONEWEB-0330,2021-075AK,2026-07-11T11:38:15.432576,13.17665477,.00020569,87.9144,1.0459,89.8791,270.2576,0,U,49108,999,23682,-.94651747E-2,-.3662E-4,0
ONEWEB-0292,2021-083A,2026-07-11T18:30:07.292736,13.13470417,.0001857,87.8972,315.3445,94.7900,265.3441,0,U,49186,999,23415,-.13123354E-3,-.35E-6,0
ONEWEB-0303,2021-083B,2026-07-11T08:33:35.201952,13.18685014,.00018041,87.9193,330.6495,91.9429,268.1910,0,U,49187,999,23316,-.7574064E-3,-.286E-5,0
ONEWEB-0306,2021-083C,2026-07-11T08:19:01.997760,13.18683356,.00020779,87.9171,330.6398,102.9065,257.2300,0,U,49188,999,23320,.6473087E-3,.268E-5,0
ONEWEB-0307,2021-083D,2026-07-11T18:21:34.221024,13.13472416,.00016689,87.8935,315.3423,95.4551,264.6769,0,U,49189,999,23415,-.48835007E-3,-.166E-5,0
ONEWEB-0320,2021-083E,2026-07-11T17:54:28.281024,13.18687311,.00017668,87.9180,330.5765,98.5370,261.5963,0,U,49190,999,23321,.10439189E-3,.54E-6,0
ONEWEB-0321,2021-083F,2026-07-11T17:54:35.265600,13.20768303,.00022194,87.9189,269.5416,102.0454,258.0929,0,U,49191,999,24007,-.22229602E-3,-.77E-6,0
ONEWEB-0322,2021-083G,2026-07-11T18:15:30.143520,13.13470538,.0001965,87.8977,315.3441,111.3432,248.7907,0,U,49192,999,23414,-.70935102E-3,-.246E-5,0
ONEWEB-0324,2021-083H,2026-07-09T16:05:34.039968,13.18686345,.00020739,87.9189,330.9792,96.9806,263.1562,0,U,49193,999,23296,.210472E-5,.14E-6,0
ONEWEB-0325,2021-083J,2026-07-10T08:33:46.356192,13.18686885,.00017743,87.9180,330.8489,99.1008,261.0325,0,U,49194,999,23306,.30709084E-4,.25E-6,0
ONEWEB-0326,2021-083K,2026-07-11T08:36:15.234624,13.18685784,.00016477,87.9193,330.6494,90.7941,269.3380,0,U,49195,999,23318,.12346974E-3,.62E-6,0
ONEWEB-0327,2021-083L,2026-07-11T08:35:51.012384,13.18685634,.00014965,87.9188,330.6517,90.9755,269.1549,0,U,49196,999,23320,.91908177E-4,.49E-6,0
ONEWEB-0328,2021-083M,2026-07-11T18:00:52.341984,13.13469671,.0002092,87.8988,315.3216,97.0055,263.1312,0,U,49197,999,23412,-.8078683E-3,-.282E-5,0
ONEWEB-0331,2021-083N,2026-07-10T08:45:54.333216,13.18684226,.00017678,87.9192,330.8404,86.0603,274.0731,0,U,49198,999,23306,.70069073E-4,.41E-6,0
ONEWEB-0333,2021-083P,2026-07-11T17:53:33.525024,13.13469261,.00018699,87.8977,315.3472,100.2945,259.8395,0,U,49199,999,23413,-.71077257E-3,-.247E-5,0
ONEWEB-0334,2021-083Q,2026-07-11T18:15:10.076256,13.20769607,.0002336,87.9188,269.5483,117.9868,242.1502,0,U,49200,999,24003,-.37267803E-3,-.139E-5,0
ONEWEB-0335,2021-083R,2026-07-11T17:46:14.074752,13.13465112,.0001436,87.8946,315.3435,87.2386,272.8907,0,U,49201,999,23414,-.24528224E-3,-.77E-6,0
