[
  {
    "name": "ONEWEB-0309",
    "noradId": "49095",
    "line1": "1 49095U 21075W   26192.46453733  .00000062  00000+0  12561-3 0  9992",
    "line2": "2 49095  87.9137   1.0337 0002254  91.8175 268.3215 13.17649798236779"
  },
  {
    "name": "ONEWEB-0310",
    "noradId": "49096",
    "line1": "1 49096U 21075X   26192.47903455  .00000238  00000+0  62729-3 0  9991",
    "line2": "2 49096  87.8937 345.8466 0001371  87.0782 273.0504 13.12444072238374"
  },
  {
    "name": "ONEWEB-0311",
    "noradId": "49097",
    "line1": "1 49097U 21075Y   26192.47128559  .00000102  00000+0  22868-3 0  9996",
    "line2": "2 49097  87.9148   1.0324 0001884  76.0996 284.0345 13.17648803236824"
  },
  {
    "name": "ONEWEB-0312",
    "noradId": "49098",
    "line1": "1 49098U 21075Z   26192.48647996  .00000040  00000+0  70986-4 0  9995",
    "line2": "2 49098  87.9137   1.0386 0002088  85.2488 274.8882 13.17648521236804"
  },
  {
    "name": "ONEWEB-0313",
    "noradId": "49099",
    "line1": "1 49099U 21075AA  26192.49139918  .00000033  00000+0  52726-4 0  9991",
    "line2": "2 49099  87.9128   1.0412 0001743  85.8168 274.3162 13.17649594236798"
  },
  {
    "name": "ONEWEB-0314",
    "noradId": "49100",
    "line1": "1 49100U 21075AB  26190.71125761  .00000000  00000+0 -33837-4 0  9995",
    "line2": "2 49100  87.9145   1.3722 0002138  83.5218 276.6157 13.17650406236532"
  },
  {
    "name": "ONEWEB-0315",
    "noradId": "49101",
    "line1": "1 49101U 21075AC  26192.37568449 -.00000346  00000+0 -99817-3 0  9997",
    "line2": "2 49101  87.8974 345.8356 0001621  83.6621 276.4692 13.12442078238348"
  },
  {
    "name": "ONEWEB-0316",
    "noradId": "49102",
    "line1": "1 49102U 21075AD  26192.74293380  .00001798  00000+0  45275-2 0  9996",
    "line2": "2 49102  87.9211 330.5727 0001944 103.3999 256.7350 13.18667072240448"
  },
  {
    "name": "ONEWEB-0317",
    "noradId": "49103",
    "line1": "1 49103U 21075AE  26191.38799070 -.00000286  00000+0 -83125-3 0  9993",
    "line2": "2 49103  87.8957 346.0558 0002337 110.1512 249.9869 13.12443173238234"
  },
  {
    "name": "ONEWEB-0318",
    "noradId": "49104",
    "line1": "1 49104U 21075AF  26192.36004574  .00000038  00000+0  63868-4 0  9997",
    "line2": "2 49104  87.9187 330.6508 0001807  94.1893 265.9446 13.18686466240354"
  },
  {
    "name": "ONEWEB-0319",
    "noradId": "49105",
    "line1": "1 49105U 21075AG  26192.47297073  .00000055  00000+0  10834-3 0  9991",
    "line2": "2 49105  87.9138   1.0356 0001624  77.2926 282.8387 13.17648086236809"
  },
  {
    "name": "ONEWEB-0323",
    "noradId": "49106",
    "line1": "1 49106U 21075AH  26192.36044272 -.00000034  00000+0 -12997-3 0  9992",
    "line2": "2 49106  87.8967 345.8435 0001795  77.9077 282.2253 13.12441457237725"
  },
  {
    "name": "ONEWEB-0329",
    "noradId": "49107",
    "line1": "1 49107U 21075AJ  26192.48140591  .00000156  00000+0  36927-3 0  9999",
    "line2": "2 49107  87.9144   1.0356 0002004  88.0560 272.0801 13.17650976236785"
  },
  {
    "name": "ONEWEB-0330",
    "noradId": "49108",
    "line1": "1 49108U 21075AK  26192.48490084 -.00003662  00000+0 -94652-2 0  9990",
    "line2": "2 49108  87.9144   1.0459 0002056  89.8791 270.2576 13.17665477236828"
  },
  {
    "name": "ONEWEB-0292",
    "noradId": "49186",
    "line1": "1 49186U 21083A   26192.77091774 -.00000035  00000+0 -13123-3 0  9996",
    "line2": "2 49186  87.8972 315.3445 0001857  94.7900 265.3441 13.13470417234157"
  },
  {
    "name": "ONEWEB-0303",
    "noradId": "49187",
    "line1": "1 49187U 21083B   26192.35665743 -.00000286  00000+0 -75741-3 0  9996",
    "line2": "2 49187  87.9193 330.6495 0001804  91.9429 268.1910 13.18685014233164"
  },
  {
    "name": "ONEWEB-0306",
    "noradId": "49188",
    "line1": "1 49188U 21083C   26192.34655090  .00000268  00000+0  64731-3 0  9995",
    "line2": "2 49188  87.9171 330.6398 0002077 102.9065 257.2300 13.18683356233209"
  },
  {
    "name": "ONEWEB-0307",
    "noradId": "49189",
    "line1": "1 49189U 21083D   26192.76497941 -.00000166  00000+0 -48835-3 0  9997",
    "line2": "2 49189  87.8935 315.3423 0001668  95.4551 264.6769 13.13472416234151"
  },
  {
    "name": "ONEWEB-0320",
    "noradId": "49190",
    "line1": "1 49190U 21083E   26192.74616066  .00000054  00000+0  10439-3 0  9991",
    "line2": "2 49190  87.9180 330.5765 0001766  98.5370 261.5963 13.18687311233211"
  },
  {
    "name": "ONEWEB-0321",
    "noradId": "49191",
    "line1": "1 49191U 21083F   26192.74624150 -.00000077  00000+0 -22230-3 0  9994",
    "line2": "2 49191  87.9189 269.5416 0002219 102.0454 258.0929 13.20768303240072"
  },
  {
    "name": "ONEWEB-0322",
    "noradId": "49192",
    "line1": "1 49192U 21083G   26192.76076555 -.00000246  00000+0 -70935-3 0  9990",
    "line2": "2 49192  87.8977 315.3441 0001965 111.3432 248.7907 13.13470538234146"
  },
  {
    "name": "ONEWEB-0324",
    "noradId": "49193",
    "line1": "1 49193U 21083H   26190.67053287  .00000014  00000+0  21047-5 0  9999",
    "line2": "2 49193  87.9189 330.9792 0002073  96.9806 263.1562 13.18686345232965"
  },
  {
    "name": "ONEWEB-0325",
    "noradId": "49194",
    "line1": "1 49194U 21083J   26191.35678653  .00000025  00000+0  30709-4 0  9992",
    "line2": "2 49194  87.9180 330.8489 0001774  99.1008 261.0325 13.18686885233060"
  },
  {
    "name": "ONEWEB-0326",
    "noradId": "49195",
    "line1": "1 49195U 21083K   26192.35850966  .00000062  00000+0  12347-3 0  9991",
    "line2": "2 49195  87.9193 330.6494 0001647  90.7941 269.3380 13.18685784233183"
  },
  {
    "name": "ONEWEB-0327",
    "noradId": "49196",
    "line1": "1 49196U 21083L   26192.35822931  .00000049  00000+0  91908-4 0  9999",
    "line2": "2 49196  87.9188 330.6517 0001496  90.9755 269.1549 13.18685634233203"
  },
  {
    "name": "ONEWEB-0328",
    "noradId": "49197",
    "line1": "1 49197U 21083M   26192.75060581 -.00000282  00000+0 -80787-3 0  9992",
    "line2": "2 49197  87.8988 315.3216 0002092  97.0055 263.1312 13.13469671234121"
  },
  {
    "name": "ONEWEB-0331",
    "noradId": "49198",
    "line1": "1 49198U 21083N   26191.36521219  .00000041  00000+0  70069-4 0  9993",
    "line2": "2 49198  87.9192 330.8404 0001767  86.0603 274.0731 13.18684226233064"
  },
  {
    "name": "ONEWEB-0333",
    "noradId": "49199",
    "line1": "1 49199U 21083P   26192.74552691 -.00000247  00000+0 -71077-3 0  9994",
    "line2": "2 49199  87.8977 315.3472 0001869 100.2945 259.8395 13.13469261234130"
  },
  {
    "name": "ONEWEB-0334",
    "noradId": "49200",
    "line1": "1 49200U 21083Q   26192.76053329 -.00000139  00000+0 -37268-3 0  9997",
    "line2": "2 49200  87.9188 269.5483 0002336 117.9868 242.1502 13.20769607240035"
  },
  {
    "name": "ONEWEB-0335",
    "noradId": "49201",
    "line1": "1 49201U 21083R   26192.74044068 -.00000077  00000+0 -24528-3 0  9992",
    "line2": "2 49201  87.8946 315.3435 0001436  87.2386 272.8907 13.13465112234148"
  }
]